SKYSAT-C1               
1 41601U 16040C   26154.60230890  .00009607  00000+0  27556-3 0  9998
2 41601  96.9565 187.0603 0004346  84.7600 275.4141 15.36058457555789
LAPAN-A3                
1 41603U 16040E   26154.94108675  .00003676  00000+0  11739-3 0  9998
2 41603  97.1487 151.5233 0012061  67.8452 292.4070 15.33017278552782
GAOFEN-3                
1 41727U 16049A   26154.97152215  .00000000  00000+0  13266-4 0  9992
2 41727  98.4008 162.9568 0001131  98.0194 262.1125 14.42213467516742
SKYSAT-C4               
1 41771U 16058B   26154.88984917  .00018110  00000+0  34603-3 0  9991
2 41771  96.9177 177.2225 0001113  75.5816 284.5560 15.48152765543416
SKYSAT-C5               
1 41772U 16058C   26154.60426366  .00008371  00000+0  25455-3 0  9994
2 41772  97.0473 195.8520 0002599  21.4994 338.6359 15.34265536541666
SKYSAT-C2               
1 41773U 16058D   26154.82571392  .00013371  00000+0  31791-3 0  9995
2 41773  97.0171 177.4266 0005245  99.0660 261.1182 15.41751080542990
SKYSAT-C3               
1 41774U 16058E   26154.92798572  .00024091  00000+0  40203-3 0  9997
2 41774  96.9013 186.2904 0002184  80.1516 279.9985 15.51948906544054
ALSAT-1B                
1 41785U 16059C   26154.91931998  .00000371  00000+0  66237-4 0  9991
2 41785  97.7746 164.2556 0007723 270.7315  89.3008 14.72263778518627
PATHFINDER 1            
1 41787U 16059E   26154.56927175  .00000718  00000+0  13392-3 0  9994
2 41787  97.8166 154.4603 0027019 248.6845 111.1475 14.67646780517715
SCATSAT 1               
1 41790U 16059H   26154.61947552  .00001245  00000+0  17017-3 0  9999
2 41790  98.1197 218.2454 0053324 292.3275  67.2289 14.79496030 99589
GOKTURK 1A              
1 41875U 16073A   26154.90691690  .00000445  00000+0  96382-4 0  9994
2 41875  98.1267  49.7889 0001442  77.6605 282.4759 14.62764541506881
RESOURCESAT-2A          
1 41877U 16074A   26154.97970434  .00000071  00000+0  52714-4 0  9996
2 41877  98.7528 228.5912 0003276 108.5437 251.6096 14.21611346492422
CARTOSAT-2D             
1 41948U 17008A   26153.47095096 -.00002393  00000+0 -11060-3 0  9998
2 41948  97.4108 213.0506 0003457 298.8344  61.2544 15.19207121515340
SENTINEL-2B             
1 42063U 17013A   26154.92075687 -.00000092  00000+0 -18638-4 0  9991
2 42063  98.5693 229.8819 0001212  84.7654 275.3667 14.30812181482746
CARTOSAT-2E             
1 42767U 17036C   26155.00341367  .00003728  00000+0  18029-3 0  9998
2 42767  97.4277 215.0225 0003396  14.1259 346.0070 15.19212870496144
FORMOSAT-5              
1 42920U 17049A   26154.88087961  .00000213  00000+0  65026-4 0  9991
2 42920  98.2254 230.4860 0012556 121.1505 239.0923 14.50893525464741
SENTINEL-5P             
1 42969U 17064A   26154.45710016  .00000070  00000+0  54088-4 0  9995
2 42969  98.7922  96.6865 0001019  80.8558 279.2733 14.19516465447611
SKYSAT-C11              
1 42987U 17068A   26154.62983218  .00030479  00000+0  42034-3 0  9997
2 42987  97.4343 302.8792 0001303  89.5055 270.6349 15.57161157481139
SKYSAT-C10              
1 42988U 17068B   26154.79411441  .00010518  00000+0  31809-3 0  9990
2 42988  97.4496 291.5143 0001340  91.0522 269.0875 15.34397029480309
SKYSAT-C9               
1 42989U 17068C   26154.60604697  .00014653  00000+0  35433-3 0  9999
2 42989  97.4416 292.1308 0008664 177.2235 182.9061 15.41208381480665
SKYSAT-C8               
1 42990U 17068D   26154.65543428  .00011964  00000+0  33597-3 0  9991
2 42990  97.4513 291.1227 0001587 100.5716 259.5707 15.36695849480238
SKYSAT-C7               
1 42991U 17068E   26154.32299353  .00012311  00000+0  34606-3 0  9990
2 42991  97.4524 291.7746 0006811 147.4751 212.6913 15.36634585480247
SKYSAT-C6               
1 42992U 17068F   26154.84043350  .00010246  00000+0  31167-3 0  9996
2 42992  97.4560 292.3173 0002707 163.5662 196.5669 15.34215986480278
CARTOSAT-2F             
1 43111U 18004A   26154.90366678  .00004555  00000+0  21928-3 0  9999
2 43111  97.4791 214.6671 0000362   5.1152 355.0086 15.19265281465317
GAOFEN-1 02             
1 43259U 18031A   26154.94770995  .00001078  00000+0  16234-3 0  9998
2 43259  98.0529 217.5109 0004495  63.7006 296.4665 14.76462775440743
GAOFEN-1 03             
1 43260U 18031B   26154.92584539  .00000860  00000+0  13107-3 0  9999
2 43260  98.0527 217.3491 0003780 105.7219 254.4407 14.76449048440739
GAOFEN-1 04             
1 43262U 18031D   26154.96937197  .00000600  00000+0  93652-4 0  9993
2 43262  98.0531 217.5812 0002205  96.1687 263.9774 14.76458750440730
SENTINEL-3B             
1 43437U 18039A   26154.16373391  .00000141  00000+0  76454-4 0  9998
2 43437  98.6251 221.8966 0000991  74.7184 285.4106 14.26737564422120
GAOFEN-5 01             
1 43461U 18043A   26154.49766817  .00000391  00000+0  90445-4 0  9998
2 43461  98.4563 125.7972 0002900 108.1077 252.0439 14.60595182429699
GAOFEN-6                
1 43484U 18048A   26154.92490609  .00000369  00000+0  59862-4 0  9992
2 43484  97.7761 218.0945 0011061 212.4618 147.5913 14.76614707431432
