OBJECT_NAME,OBJECT_ID,EPOCH,MEAN_MOTION,ECCENTRICITY,INCLINATION,RA_OF_ASC_NODE,ARG_OF_PERICENTER,MEAN_ANOMALY,EPHEMERIS_TYPE,CLASSIFICATION_TYPE,NORAD_CAT_ID,ELEMENT_SET_NO,REV_AT_EPOCH,BSTAR,MEAN_MOTION_DOT,MEAN_MOTION_DDOT
SKYSAT-C1,2016-040C,2026-06-03T14:27:19.488960,15.36058457,.00043463,96.9565,187.0603,84.7600,275.4141,0,U,41601,999,55578,.2755583E-3,.9607E-4,0
LAPAN-A3,2016-040E,2026-06-03T22:35:09.895200,15.33017278,.00120615,97.1487,151.5233,67.8452,292.4070,0,U,41603,999,55278,.11738673E-3,.3676E-4,0
GAOFEN-3,2016-049A,2026-06-03T23:18:59.513760,14.42213467,.00011319,98.4008,162.9568,98.0194,262.1125,0,U,41727,999,51674,.13265569E-4,0,0
SKYSAT-C4,2016-058B,2026-06-03T21:21:22.968288,15.48152765,.00011134,96.9177,177.2225,75.5816,284.5560,0,U,41771,999,54341,.34602538E-3,.1811E-3,0
SKYSAT-C5,2016-058C,2026-06-03T14:30:08.380224,15.34265536,.00025993,97.0473,195.8520,21.4994,338.6359,0,U,41772,999,54166,.25454996E-3,.8371E-4,0
SKYSAT-C2,2016-058D,2026-06-03T19:49:01.682688,15.41751080,.00052451,97.0171,177.4266,99.0660,261.1182,0,U,41773,999,54299,.31790928E-3,.13371E-3,0
SKYSAT-C3,2016-058E,2026-06-03T22:16:17.966208,15.51948906,.00021843,96.9013,186.2904,80.1516,279.9985,0,U,41774,999,54405,.40203149E-3,.24091E-3,0
ALSAT-1B,2016-059C,2026-06-03T22:03:49.246272,14.72263778,.00077234,97.7746,164.2556,270.7315,89.3008,0,U,41785,999,51862,.66236597E-4,.371E-5,0
PATHFINDER 1,2016-059E,2026-06-03T13:39:45.079200,14.67646780,.00270196,97.8166,154.4603,248.6845,111.1475,0,U,41787,999,51771,.13391988E-3,.718E-5,0
SCATSAT 1,2016-059H,2026-06-03T14:52:02.684928,14.79496030,.00533245,98.1197,218.2454,292.3275,67.2289,0,U,41790,999,9958,.17016733E-3,.1245E-4,0
GOKTURK 1A,2016-073A,2026-06-03T21:45:57.620160,14.62764541,.0001442,98.1267,49.7889,77.6605,282.4759,0,U,41875,999,50688,.9638232E-4,.445E-5,0
RESOURCESAT-2A,2016-074A,2026-06-03T23:30:46.454976,14.21611346,.00032766,98.7528,228.5912,108.5437,251.6096,0,U,41877,999,49242,.52713784E-4,.71E-6,0
CARTOSAT-2D,2017-008A,2026-06-02T11:18:10.162944,15.19207121,.00034572,97.4108,213.0506,298.8344,61.2544,0,U,41948,999,51534,-.11060249E-3,-.2393E-4,0
SENTINEL-2B,2017-013A,2026-06-03T22:05:53.393568,14.30812181,.00012122,98.5693,229.8819,84.7654,275.3667,0,U,42063,999,48274,-.18637965E-4,-.92E-6,0
CARTOSAT-2E,2017-036C,2026-06-04T00:04:54.941088,15.19212870,.0003396,97.4277,215.0225,14.1259,346.0070,0,U,42767,999,49614,.18029E-3,.3728E-4,0
FORMOSAT-5,2017-049A,2026-06-03T21:08:27.998304,14.50893525,.00125563,98.2254,230.4860,121.1505,239.0923,0,U,42920,999,46474,.65026169E-4,.213E-5,0
SENTINEL-5P,2017-064A,2026-06-03T10:58:13.453824,14.19516465,.00010192,98.7922,96.6865,80.8558,279.2733,0,U,42969,999,44761,.5408796E-4,.7E-6,0
SKYSAT-C11,2017-068A,2026-06-03T15:06:57.500352,15.57161157,.0001303,97.4343,302.8792,89.5055,270.6349,0,U,42987,999,48113,.42034487E-3,.30479E-3,0
SKYSAT-C10,2017-068B,2026-06-03T19:03:31.485024,15.34397029,.00013406,97.4496,291.5143,91.0522,269.0875,0,U,42988,999,48030,.31809253E-3,.10518E-3,0
SKYSAT-C9,2017-068C,2026-06-03T14:32:42.458208,15.41208381,.0008664,97.4416,292.1308,177.2235,182.9061,0,U,42989,999,48066,.35433104E-3,.14653E-3,0
SKYSAT-C8,2017-068D,2026-06-03T15:43:49.521792,15.36695849,.00015876,97.4513,291.1227,100.5716,259.5707,0,U,42990,999,48023,.33596648E-3,.11964E-3,0
SKYSAT-C7,2017-068E,2026-06-03T07:45:06.640992,15.36634585,.00068117,97.4524,291.7746,147.4751,212.6913,0,U,42991,999,48024,.34605537E-3,.12311E-3,0
SKYSAT-C6,2017-068F,2026-06-03T20:10:13.454400,15.34215986,.00027079,97.4560,292.3173,163.5662,196.5669,0,U,42992,999,48027,.31166974E-3,.10246E-3,0
CARTOSAT-2F,2018-004A,2026-06-03T21:41:16.809792,15.19265281,.00003628,97.4791,214.6671,5.1152,355.0086,0,U,43111,999,46531,.21928028E-3,.4555E-4,0
GAOFEN-1 02,2018-031A,2026-06-03T22:44:42.139680,14.76462775,.00044954,98.0529,217.5109,63.7006,296.4665,0,U,43259,999,44074,.16233613E-3,.1078E-4,0
GAOFEN-1 03,2018-031B,2026-06-03T22:13:13.041696,14.76449048,.00037806,98.0527,217.3491,105.7219,254.4407,0,U,43260,999,44073,.13106542E-3,.86E-5,0
GAOFEN-1 04,2018-031D,2026-06-03T23:15:53.738208,14.76458750,.00022052,98.0531,217.5812,96.1687,263.9774,0,U,43262,999,44073,.93651808E-4,.6E-5,0
SENTINEL-3B,2018-039A,2026-06-03T03:55:46.609824,14.26737564,.0000991,98.6251,221.8966,74.7184,285.4106,0,U,43437,999,42212,.76454024E-4,.141E-5,0
GAOFEN-5 01,2018-043A,2026-06-03T11:56:38.529888,14.60595182,.00029,98.4563,125.7972,108.1077,252.0439,0,U,43461,999,42969,.90445E-4,.391E-5,0
GAOFEN-6,2018-048A,2026-06-03T22:11:51.886176,14.76614707,.00110614,97.7761,218.0945,212.4618,147.5913,0,U,43484,999,43143,.59861513E-4,.369E-5,0
